NESS                    
1 58020U 23155E   26068.76452457  .00019469  00000+0  74047-3 0  9996
2 58020  97.5941 152.6141 0006891 179.8776 180.2465 15.26794015133307
STARLINK-34767          
1 66507U 25263Y   26068.15052148  .00031180  00000+0  11370-2 0  9996
2 66507  43.0096 353.9748 0000663 347.3521  12.7314 15.27602830 18817
